STARLINK-4217           
1 52999U 22076P   26068.47596316  .00002019  00000+0  14496-3 0  9992
2 52999  53.2169  95.0808 0001498  90.6536 269.4628 15.08829001202817
LEMUR-2-MARHISYAM       
1 60536U 24149BW  26068.74036894  .00013075  00000+0  82973-3 0  9990
2 60536  97.6912 151.2662 0003578 107.3271 252.8349 15.09015520 85478
